H1 CPF 01  gfz 2022 02 15 01  5461 terrasarx 
H2 0702601  6201 31698    2022 02 15 00 59 42 2022 02 20 00 00 42   120 1 1  0 0 0
H9
10 0 59626  66222.000000  0    5661023.072  -1048630.952   3773729.745
10 0 59626  66342.000000  0    5089858.731  -1132724.923   4492215.341
10 0 59626  66462.000000  0    4428536.893  -1186237.793   5131633.555
10 0 59626  66582.000000  0    3689199.300  -1206770.510   5680762.154
10 0 59626  66702.000000  0    2885378.557  -1192725.364   6129977.467
10 0 59626  66822.000000  0    2031742.730  -1143354.656   6471417.600
10 0 59626  66942.000000  0    1143823.044  -1058790.215   6699114.659
10 0 59626  67062.000000  0     237727.273   -940052.775   6809093.638
10 0 59626  67182.000000  0    -670153.618   -789041.066   6799436.189
10 0 59626  67302.000000  0   -1563440.819   -608501.668   6670310.979
10 0 59626  67422.000000  0   -2426061.573   -401979.217   6423970.721
10 0 59626  67542.000000  0   -3242537.110   -173747.971   6064716.052
10 0 59626  67662.000000  0   -3998261.801     71274.253   5598826.272
10 0 59626  67782.000000  0   -4679768.884    327628.342   5034455.889
10 0 59626  67902.000000  0   -5274976.998    589430.395   4381497.620
10 0 59626  68022.000000  0   -5773413.007    850500.745   3651413.297
10 0 59626  68142.000000  0   -6166405.029   1104502.808   2857035.250
10 0 59626  68262.000000  0   -6447243.179   1345088.762   2012341.207
10 0 59626  68382.000000  0   -6611303.036   1566048.107   1132205.610
10 0 59626  68502.000000  0   -6656129.074   1761456.235    232131.652
10 0 59626  68622.000000  0   -6581473.374   1925818.753   -672030.659
10 0 59626  68742.000000  0   -6389289.217   2054207.075  -1564372.579
10 0 59626  68862.000000  0   -6083681.189   2142382.882  -2429214.513
10 0 59626  68982.000000  0   -5670812.346   2186908.501  -3251389.299
10 0 59626  69102.000000  0   -5158769.789   2185239.306  -4016512.936
10 0 59626  69222.000000  0   -4557394.505   2135796.046  -4711236.151
10 0 59626  69342.000000  0   -3878080.714   2038016.444  -5323473.032
10 0 59626  69462.000000  0   -3133550.500   1892385.399  -5842602.922
10 0 59626  69582.000000  0   -2337609.789   1700443.559  -6259644.679
10 0 59626  69702.000000  0   -1504888.361   1464774.039  -6567401.677
10 0 59626  69822.000000  0    -650570.496   1188967.739  -6760573.474
10 0 59626  69942.000000  0     209877.647    877568.354  -6835836.859
10 0 59626  70062.000000  0    1060980.489    535998.926  -6791896.889
10 0 59626  70182.000000  0    1887525.542    170469.324  -6629508.978
10 0 59626  70302.000000  0    2674829.576   -212133.996  -6351466.354
10 0 59626  70422.000000  0    3408994.792   -604373.570  -5962557.741
10 0 59626  70542.000000  0    4077151.743   -998400.936  -5469492.208
10 0 59626  70662.000000  0    4667685.269  -1386108.617  -4880795.124
10 0 59626  70782.000000  0    5170441.994  -1759293.353  -4206672.555
10 0 59626  70902.000000  0    5576912.912  -2109825.954  -3458844.627
10 0 59626  71022.000000  0    5880387.886  -2429824.788  -2650349.872
10 0 59626  71142.000000  0    6076077.594  -2711829.371  -1795322.298
10 0 59626  71262.000000  0    6161198.983  -2948969.499   -908745.228
10 0 59626  71382.000000  0    6135022.552  -3135125.927     -6186.492
10 0 59626  71502.000000  0    5998878.807  -3265078.445    896480.473
10 0 59626  71622.000000  0    5756124.354  -3334637.548   1783363.839
10 0 59626  71742.000000  0    5412064.854  -3340755.047   2638843.544
10 0 59626  71862.000000  0    4973838.620  -3281611.344   3447854.151
10 0 59626  71982.000000  0    4450264.737  -3156676.291   4196156.772
10 0 59626  72102.000000  0    3851660.634  -2966743.686   4870592.971
10 0 59626  72222.000000  0    3189631.298  -2713939.078   5459318.614
10 0 59626  72342.000000  0    2476836.181  -2401698.494   5952009.570
10 0 59626  72462.000000  0    1726741.253  -2034720.938   6340038.270
10 0 59626  72582.000000  0     953360.161  -1618895.871   6616619.069
10 0 59626  72702.000000  0     170989.607  -1161206.541   6776920.781
10 0 59626  72822.000000  0    -606055.527   -669610.979   6818145.415
10 0 59626  72942.000000  0   -1363703.105   -152903.174   6739573.187
10 0 59626  73062.000000  0   -2088377.358    379443.863   6542574.310
10 0 59626  73182.000000  0   -2767241.300    917451.102   6230586.838
10 0 59626  73302.000000  0   -3388424.654   1450819.475   5809060.783
10 0 59626  73422.000000  0   -3941234.052   1969126.139   5285369.204
10 0 59626  73542.000000  0   -4416342.433   2462028.455   4668686.081
10 0 59626  73662.000000  0   -4805953.328   2919471.798   3969830.538
10 0 59626  73782.000000  0   -5103935.169   3331895.733   3201079.837
10 0 59626  73902.000000  0   -5305924.114   3690435.284   2375955.458
10 0 59626  74022.000000  0   -5409392.786   3987113.000   1508984.142
10 0 59626  74142.000000  0   -5413682.717   4215016.184    615436.849
10 0 59626  74262.000000  0   -5319997.541   4368453.759   -288947.948
10 0 59626  74382.000000  0   -5131359.281   4443089.809  -1188249.413
10 0 59626  74502.000000  0   -4852527.897   4436050.773  -2066654.406
10 0 59626  74622.000000  0   -4489884.642   4346001.431  -2908744.711
10 0 59626  74742.000000  0   -4051283.919   4173188.528  -3699773.132
10 0 59626  74862.000000  0   -3545878.017   3919452.267  -4425923.218
10 0 59626  74982.000000  0   -2983920.180   3588206.165  -5074547.365
10 0 59626  75102.000000  0   -2376552.535   3184386.626  -5634379.668
10 0 59626  75222.000000  0   -1735582.775   2714374.693  -6095723.411
10 0 59626  75342.000000  0   -1073252.650   2185889.579  -6450608.798
10 0 59626  75462.000000  0    -402005.191   1607858.171  -6692918.398
10 0 59626  75582.000000  0     265745.416    990263.536  -6818481.984
10 0 59626  75702.000000  0     917837.445    343974.525  -6825140.809
10 0 59626  75822.000000  0    1542578.803   -319441.801  -6712781.866
10 0 59626  75942.000000  0    2128951.782   -987922.782  -6483338.020
10 0 59626  76062.000000  0    2666802.882  -1649123.637  -6140758.539
10 0 59626  76182.000000  0    3147016.652  -2290639.646  -5690948.251
10 0 59626  76302.000000  0    3561671.025  -2900235.076  -5141677.767
10 0 59626  76422.000000  0    3904172.255  -3466077.081  -4502459.864
10 0 59626  76542.000000  0    4169363.214  -3976965.831  -3784393.910
10 0 59626  76662.000000  0    4353606.076  -4422558.376  -2999983.435
10 0 59626  76782.000000  0    4454837.708  -4793582.678  -2162925.412
10 0 59626  76902.000000  0    4472594.552  -5082036.043  -1287874.029
10 0 59626  77022.000000  0    4408004.713  -5281362.578   -390182.526
10 0 59626  77142.000000  0    4263747.777  -5386603.389    514371.177
10 0 59626  77262.000000  0    4043983.126  -5394516.884   1409868.927
10 0 59626  77382.000000  0    3754247.724  -5303664.322   2280542.262
10 0 59626  77502.000000  0    3401325.143  -5114458.334   3111058.325
10 0 59626  77622.000000  0    2993091.063  -4829175.063   3886797.065
10 0 59626  77742.000000  0    2538338.498  -4451927.510   4594113.698
10 0 59626  77862.000000  0    2046587.840  -3988602.307   5220581.175
10 0 59626  77982.000000  0    1527885.924  -3446761.652   5755207.921
10 0 59626  78102.000000  0     992598.573  -2835512.352   6188627.929
10 0 59626  78222.000000  0     451201.701  -2165346.256   6513258.688
10 0 59626  78342.000000  0     -85924.207  -1447955.754   6723426.806
10 0 59626  78462.000000  0    -608692.049   -696027.755   6815461.792
10 0 59626  78582.000000  0   -1107496.333     76982.293   6787756.656
10 0 59626  78702.000000  0   -1573388.991    857091.085   6640793.927
10 0 59626  78822.000000  0   -1998239.386   1630039.659   6377137.555
10 0 59626  78942.000000  0   -2374876.657   2381553.039   6001391.039
10 0 59626  79062.000000  0   -2697211.714   3097604.039   5520122.096
10 0 59626  79182.000000  0   -2960337.546   3764676.855   4941754.417
10 0 59626  79302.000000  0   -3160606.803   4370026.281   4276426.691
10 0 59626  79422.000000  0   -3295683.505   4901927.318   3535819.563
10 0 59626  79542.000000  0   -3364568.075   5349909.837   2732952.693
10 0 59626  79662.000000  0   -3367594.484   5704971.846   1881954.786
10 0 59626  79782.000000  0   -3306399.991   5959765.712    997811.513
10 0 59626  79902.000000  0   -3183867.760   6108754.966     96096.667
10 0 59626  80022.000000  0   -3004043.612   6148336.350   -807310.606
10 0 59626  80142.000000  0   -2772029.411   6076922.378  -1696515.746
10 0 59626  80262.000000  0   -2493853.417   5894981.324  -2555899.495
10 0 59626  80382.000000  0   -2176322.212   5605033.718  -3370397.594
10 0 59626  80502.000000  0   -1826860.835   5211611.038  -4125766.849
10 0 59626  80622.000000  0   -1453343.897   4721173.844  -4808833.551
10 0 59626  80742.000000  0   -1063922.578   4141994.672  -5407717.436
10 0 59626  80862.000000  0    -666850.733   3484009.530  -5912031.058
10 0 59626  80982.000000  0    -270313.200   2758639.003  -6313051.122
10 0 59626  81102.000000  0     117739.257   1978583.732  -6603857.535
10 0 59626  81222.000000  0     489744.478   1157601.031  -6779441.581
10 0 59626  81342.000000  0     838671.918    310263.988  -6836783.946
10 0 59626  81462.000000  0    1158152.022   -548293.000  -6774900.777
10 0 59626  81582.000000  0    1442589.092  -1402639.043  -6594857.421
10 0 59626  81702.000000  0    1687256.702  -2237316.332  -6299751.305
10 0 59626  81822.000000  0    1888375.631  -3037112.755  -5894665.377
10 0 59626  81942.000000  0    2043172.391  -3787335.894  -5386591.334
10 0 59626  82062.000000  0    2149917.445  -4474084.343  -4784319.214
10 0 59626  82182.000000  0    2207941.892  -5084506.931  -4098295.093
10 0 59626  82302.000000  0    2217632.804  -5607048.611  -3340450.845
10 0 59626  82422.000000  0    2180406.565  -6031678.531  -2524004.848
10 0 59626  82542.000000  0    2098660.348  -6350094.101  -1663236.207
10 0 59626  82662.000000  0    1975701.369  -6555894.282   -773235.461
99
